{
    "links": {
        "self": "http://www.neowsapp.com/rest/v1/neo/3648872?api_key=iIulBulltgU6a56xZRHN4H3l9WmuAYTsLGpBGhQ2"
    },
    "id": "3648872",
    "neo_reference_id": "3648872",
    "name": "(2013 TD6)",
    "designation": "2013 TD6",
    "nasa_jpl_url": "http://ssd.jpl.nasa.gov/sbdb.cgi?sstr=3648872",
    "absolute_magnitude_h": 22.0,
    "estimated_diameter": {
        "kilometers": {
            "estimated_diameter_min": 0.1058168859,
            "estimated_diameter_max": 0.2366137501
        },
        "meters": {
            "estimated_diameter_min": 105.8168859331,
            "estimated_diameter_max": 236.6137501138
        },
        "miles": {
            "estimated_diameter_min": 0.0657515442,
            "estimated_diameter_max": 0.1470249225
        },
        "feet": {
            "estimated_diameter_min": 347.1682720448,
            "estimated_diameter_max": 776.2918559233
        }
    },
    "is_potentially_hazardous_asteroid": false,
    "close_approach_data": [
        {
            "close_approach_date": "2013-10-09",
            "close_approach_date_full": "2013-Oct-09 09:40",
            "epoch_date_close_approach": 1381311600000,
            "relative_velocity": {
                "kilometers_per_second": "16.3146743838",
                "kilometers_per_hour": "58732.8277816094",
                "miles_per_hour": "36494.2951290784"
            },
            "miss_distance": {
                "astronomical": "0.3152635639",
                "lunar": "122.6375263571",
                "kilometers": "47162757.648048893",
                "miles": "29305578.6847570034"
            },
            "orbiting_body": "Earth"
        }
    ],
    "orbital_data": {
        "orbit_id": "10",
        "orbit_determination_date": "2017-04-06 08:44:18",
        "first_observation_date": "2013-10-04",
        "last_observation_date": "2013-10-27",
        "data_arc_in_days": 23,
        "observations_used": 29,
        "orbit_uncertainty": "7",
        "minimum_orbit_intersection": ".310353",
        "jupiter_tisserand_invariant": "3.160",
        "epoch_osculation": "2459000.5",
        "eccentricity": ".4776377178727033",
        "semi_major_axis": "2.460892786469818",
        "inclination": "30.05104214945315",
        "ascending_node_longitude": "11.47561830360941",
        "orbital_period": "1410.059590423399",
        "perihelion_distance": "1.285477572010976",
        "perihelion_argument": "22.39022422279687",
        "aphelion_distance": "3.63630800092866",
        "perihelion_time": "2459410.279067908570",
        "mean_anomaly": "255.3799786555196",
        "mean_motion": ".2553083589126207",
        "equinox": "J2000",
        "orbit_class": {
            "orbit_class_type": "AMO",
            "orbit_class_description": "Near-Earth asteroid orbits similar to that of 1221 Amor",
            "orbit_class_range": "1.017 AU < q (perihelion) < 1.3 AU"
        }
    },
    "is_sentry_object": false
}